[
    {
        "Altitude(m)": 604221.222863785,
        "Argument of Periapsis(deg)": 0.0,
        "Eccentricity": 0.0,
        "Inclination(deg)": 60.0,
        "Latitude(deg)": 14.11735156186829,
        "Longitude(deg)": 48.33412916529883,
        "Mean Anomaly(deg)": 16.363600000000012,
        "RAAN(deg)": 140.0,
        "Satellite Name": "Test1 617",
        "Satellite Number": 617,
        "Semi-Major Axis(m)": 6980739.136638005,
        "Time(s)": 0
    },
    {
        "Altitude(m)": 604235.3645078427,
        "Argument of Periapsis(deg)": 0.00010418945913296404,
        "Eccentricity": 0.0,
        "Inclination(deg)": 60.0,
        "Latitude(deg)": 14.651748817366563,
        "Longitude(deg)": 48.62257527368277,
        "Mean Anomaly(deg)": 16.983706145461838,
        "RAAN(deg)": 139.99957995086024,
        "Satellite Name": "Test1 617",
        "Satellite Number": 617,
        "Semi-Major Axis(m)": 6980739.136638005,
        "Time(s)": 10
    }
]